{
  "type": "FeatureCollection",
  "features": [
    {
      "type": "Feature",
      "geometry": { "type": "Point", "coordinates": [24.6980, 59.3970] },
      "properties": {
        "id": "hosp-perh",
        "name": "Põhja-Eesti Regionaalhaigla (PERH)",
        "shortName": "PERH EMO",
        "amenity": "hospital",
        "type": "hospital",
        "category": "Regional Trauma Center & Emergency",
        "address": "J. Sütiste tee 19",
        "district": "Mustamäe",
        "city": "Tallinn",
        "phone": "+372 617 1300",
        "emergency": "112",
        "status": "active",
        "hours": "24/7 EMO Open",
        "beds": 1200
      }
    },
    {
      "type": "Feature",
      "geometry": { "type": "Point", "coordinates": [24.7570, 59.4282] },
      "properties": {
        "id": "hosp-itk",
        "name": "Ida-Tallinna Keskhaigla (ITK)",
        "shortName": "ITK Ravi üksus",
        "amenity": "hospital",
        "type": "hospital",
        "category": "Central Hospital & Inpatient",
        "address": "Ravi tn 18",
        "district": "Kesklinn",
        "city": "Tallinn",
        "phone": "+372 666 1900",
        "emergency": "112",
        "status": "active",
        "hours": "24/7 EMO Open",
        "beds": 650
      }
    },
    {
      "type": "Feature",
      "geometry": { "type": "Point", "coordinates": [24.7042, 59.4355] },
      "properties": {
        "id": "hosp-ltkh",
        "name": "Lääne-Tallinna Keskhaigla (LTKH)",
        "shortName": "LTKH Meremeeste",
        "amenity": "hospital",
        "type": "hospital",
        "category": "West Tallinn Central Hospital",
        "address": "Paldiski mnt 68",
        "district": "Põhja-Tallinn",
        "city": "Tallinn",
        "phone": "+372 626 1314",
        "emergency": "112",
        "status": "active",
        "hours": "24/7 EMO Open",
        "beds": 520
      }
    },
    {
      "type": "Feature",
      "geometry": { "type": "Point", "coordinates": [24.6975, 59.3944] },
      "properties": {
        "id": "hosp-laste",
        "name": "Tallinna Lastehaigla",
        "shortName": "Lastehaigla",
        "amenity": "hospital",
        "type": "hospital",
        "category": "Pediatric Hospital & Child Trauma",
        "address": "Tervise tn 28",
        "district": "Mustamäe",
        "city": "Tallinn",
        "phone": "+372 697 7140",
        "emergency": "112",
        "status": "active",
        "hours": "24/7 Children ER",
        "beds": 350
      }
    },
    {
      "type": "Feature",
      "geometry": { "type": "Point", "coordinates": [24.7352, 59.4124] },
      "properties": {
        "id": "hosp-magdaleena",
        "name": "ITK Magdaleena Tervisemaja",
        "shortName": "ITK Magdaleena",
        "amenity": "clinic",
        "type": "clinic",
        "category": "Diagnostic Center & Outpatient",
        "address": "Pärnu mnt 104",
        "district": "Kesklinn",
        "city": "Tallinn",
        "phone": "+372 666 1900",
        "emergency": "112",
        "status": "active",
        "hours": "Mon-Fri 08:00-19:00"
      }
    },
    {
      "type": "Feature",
      "geometry": { "type": "Point", "coordinates": [24.7128, 59.4440] },
      "properties": {
        "id": "hosp-pelgulinna",
        "name": "Pelgulinna Sünnitusmaja",
        "shortName": "Pelgulinna EMO",
        "amenity": "hospital",
        "type": "hospital",
        "category": "Maternity & Neonatal Care",
        "address": "Sõle tn 23",
        "district": "Põhja-Tallinn",
        "city": "Tallinn",
        "phone": "+372 666 5700",
        "emergency": "112",
        "status": "active",
        "hours": "24/7 Open"
      }
    },
    {
      "type": "Feature",
      "geometry": { "type": "Point", "coordinates": [24.7020, 59.4005] },
      "properties": {
        "id": "hosp-kiirabi-hq",
        "name": "Tallinna Kiirabi Peamaja",
        "shortName": "Tallinna Kiirabi HQ",
        "amenity": "hospital",
        "type": "hospital",
        "category": "Emergency Medical Response Fleet",
        "address": "Retke tee 1",
        "district": "Mustamäe",
        "city": "Tallinn",
        "phone": "+372 697 1100",
        "emergency": "112",
        "status": "active",
        "hours": "24/7 Mobile Response",
        "fleet": "42 Ambulances"
      }
    },
    {
      "type": "Feature",
      "geometry": { "type": "Point", "coordinates": [24.7335, 59.4312] },
      "properties": {
        "id": "hosp-wismari",
        "name": "Wismari Haigla",
        "shortName": "Wismari",
        "amenity": "clinic",
        "type": "clinic",
        "category": "Specialized Medical Clinic",
        "address": "Wismari tn 15",
        "district": "Kesklinn",
        "city": "Tallinn",
        "phone": "+372 662 1068",
        "status": "active",
        "hours": "08:00-20:00"
      }
    },
    {
      "type": "Feature",
      "geometry": { "type": "Point", "coordinates": [24.7548, 59.4208] },
      "properties": {
        "id": "hosp-confido",
        "name": "Confido Meditsiinikeskus",
        "shortName": "Confido Medical",
        "amenity": "clinic",
        "type": "clinic",
        "category": "Private Healthcare & Minor Trauma",
        "address": "Veerenni tn 51",
        "district": "Kesklinn",
        "city": "Tallinn",
        "phone": "+372 1330",
        "status": "active",
        "hours": "08:00-21:00"
      }
    },
    {
      "type": "Feature",
      "geometry": { "type": "Point", "coordinates": [24.6644, 59.4042] },
      "properties": {
        "id": "clinic-mustamae",
        "name": "Mustamäe Tervisekeskus",
        "shortName": "Mustamäe Tervis",
        "amenity": "clinic",
        "type": "clinic",
        "category": "Primary Health Clinic",
        "address": "Ehitajate tee 27",
        "district": "Mustamäe",
        "city": "Tallinn",
        "phone": "+372 659 8000",
        "status": "active",
        "hours": "08:00-18:00"
      }
    },
    {
      "type": "Feature",
      "geometry": { "type": "Point", "coordinates": [24.8720, 59.4501] },
      "properties": {
        "id": "clinic-lasnamae",
        "name": "Lasnamäe Tervisemaja",
        "shortName": "Lasnamäe Tervis",
        "amenity": "clinic",
        "type": "clinic",
        "category": "Primary Health Clinic",
        "address": "Linnamäe tee 3",
        "district": "Lasnamäe",
        "city": "Tallinn",
        "phone": "+372 605 0601",
        "status": "active",
        "hours": "08:00-19:00"
      }
    },
    {
      "type": "Feature",
      "geometry": { "type": "Point", "coordinates": [24.7380, 59.4082] },
      "properties": {
        "id": "pol-ppa-hq",
        "name": "Politsei- ja Piirivalveameti Peamaja (PPA HQ)",
        "shortName": "PPA Peamaja",
        "amenity": "police",
        "type": "police",
        "category": "National Police Headquarters",
        "address": "Pärnu mnt 139",
        "district": "Kesklinn",
        "city": "Tallinn",
        "phone": "+372 612 3000",
        "emergency": "112",
        "status": "active",
        "hours": "24/7 Operations Command"
      }
    },
    {
      "type": "Feature",
      "geometry": { "type": "Point", "coordinates": [24.6985, 59.4418] },
      "properties": {
        "id": "pol-kesklinn",
        "name": "Põhja Prefektuur / Kesklinna politseijaoskond",
        "shortName": "PPA Kesklinn",
        "amenity": "police",
        "type": "police",
        "category": "Regional Police Station",
        "address": "Kolde pst 65",
        "district": "Põhja-Tallinn",
        "city": "Tallinn",
        "phone": "+372 612 5400",
        "emergency": "112",
        "status": "active",
        "hours": "24/7 Active Patrols"
      }
    },
    {
      "type": "Feature",
      "geometry": { "type": "Point", "coordinates": [24.7150, 59.4012] },
      "properties": {
        "id": "pol-rahumae",
        "name": "PPA Lõuna politseijaoskond",
        "shortName": "PPA Rahumäe",
        "amenity": "police",
        "type": "police",
        "category": "Police Precinct & Rapid Response",
        "address": "Rahumäe tee 6",
        "district": "Kristiine",
        "city": "Tallinn",
        "phone": "+372 612 5600",
        "emergency": "112",
        "status": "active",
        "hours": "24/7 Active Patrols"
      }
    },
    {
      "type": "Feature",
      "geometry": { "type": "Point", "coordinates": [24.8450, 59.4348] },
      "properties": {
        "id": "pol-ida-harju",
        "name": "PPA Ida-Harju politseijaoskond",
        "shortName": "PPA Lasnamäe",
        "amenity": "police",
        "type": "police",
        "category": "Police Precinct & Rapid Response",
        "address": "P. Pinna tn 4",
        "district": "Lasnamäe",
        "city": "Tallinn",
        "phone": "+372 612 4800",
        "emergency": "112",
        "status": "active",
        "hours": "24/7 Active Patrols"
      }
    },
    {
      "type": "Feature",
      "geometry": { "type": "Point", "coordinates": [24.6540, 59.4140] },
      "properties": {
        "id": "pol-laane-harju",
        "name": "PPA Lääne-Harju politseijaoskond",
        "shortName": "PPA Mustamäe",
        "amenity": "police",
        "type": "police",
        "category": "Police Precinct & Traffic Supervision",
        "address": "Ehitajate tee 109a",
        "district": "Mustamäe",
        "city": "Tallinn",
        "phone": "+372 612 5700",
        "emergency": "112",
        "status": "active",
        "hours": "24/7 Active Patrols"
      }
    },
    {
      "type": "Feature",
      "geometry": { "type": "Point", "coordinates": [24.7170, 59.4340] },
      "properties": {
        "id": "pol-mupo",
        "name": "Tallinna Munitsipaalpolitsei Amet (MUPO)",
        "shortName": "MUPO HQ",
        "amenity": "police",
        "type": "police",
        "category": "Municipal Law Enforcement",
        "address": "Paldiski mnt 48a",
        "district": "Põhja-Tallinn",
        "city": "Tallinn",
        "phone": "+372 661 9860",
        "emergency": "14410",
        "status": "active",
        "hours": "24/7 Municipal Patrol"
      }
    },
    {
      "type": "Feature",
      "geometry": { "type": "Point", "coordinates": [24.8010, 59.4132] },
      "properties": {
        "id": "pol-airport",
        "name": "PPA Lennujaama Piiripunkt",
        "shortName": "PPA Airport Border",
        "amenity": "police",
        "type": "police",
        "category": "Border Guard & Airport Security",
        "address": "Tartu mnt 101",
        "district": "Lasnamäe",
        "city": "Tallinn",
        "phone": "+372 605 8400",
        "status": "active",
        "hours": "24/7 Security"
      }
    },
    {
      "type": "Feature",
      "geometry": { "type": "Point", "coordinates": [24.7610, 59.4445] },
      "properties": {
        "id": "pol-port",
        "name": "PPA Vanasadama Piiripunkt",
        "shortName": "PPA Harbour Border",
        "amenity": "police",
        "type": "police",
        "category": "Border Guard & Port Security",
        "address": "Sadama tn 25",
        "district": "Kesklinn",
        "city": "Tallinn",
        "phone": "+372 661 6300",
        "status": "active",
        "hours": "24/7 Port Security"
      }
    },
    {
      "type": "Feature",
      "geometry": { "type": "Point", "coordinates": [24.7675, 59.4358] },
      "properties": {
        "id": "fire-kesklinn",
        "name": "Kesklinna Päästekomando & Päästeamet HQ",
        "shortName": "Kesklinna Pääste",
        "amenity": "fire_station",
        "type": "fire_station",
        "category": "Rescue & Fire Brigade Command",
        "address": "Raua tn 2",
        "district": "Kesklinn",
        "city": "Tallinn",
        "phone": "+372 628 2000",
        "emergency": "112",
        "status": "active",
        "hours": "24/7 Emergency Ready",
        "vehicles": "3 Engines, 1 Ladder"
      }
    },
    {
      "type": "Feature",
      "geometry": { "type": "Point", "coordinates": [24.7115, 59.4328] },
      "properties": {
        "id": "fire-lillekula",
        "name": "Lilleküla Päästekomando",
        "shortName": "Lilleküla Pääste",
        "amenity": "fire_station",
        "type": "fire_station",
        "category": "Rescue & Fire Brigade",
        "address": "Paldiski mnt 47",
        "district": "Kristiine",
        "city": "Tallinn",
        "phone": "+372 628 2150",
        "emergency": "112",
        "status": "active",
        "hours": "24/7 Emergency Ready",
        "vehicles": "2 Engines, 1 Tanker"
      }
    },
    {
      "type": "Feature",
      "geometry": { "type": "Point", "coordinates": [24.6885, 59.3888] },
      "properties": {
        "id": "fire-nomme",
        "name": "Nõmme Päästekomando",
        "shortName": "Nõmme Pääste",
        "amenity": "fire_station",
        "type": "fire_station",
        "category": "Rescue & Fire Brigade",
        "address": "Jaama tn 2",
        "district": "Nõmme",
        "city": "Tallinn",
        "phone": "+372 628 2200",
        "emergency": "112",
        "status": "active",
        "hours": "24/7 Emergency Ready",
        "vehicles": "2 Engines"
      }
    },
    {
      "type": "Feature",
      "geometry": { "type": "Point", "coordinates": [24.6590, 59.3905] },
      "properties": {
        "id": "fire-mustamae",
        "name": "Mustamäe Päästekomando",
        "shortName": "Mustamäe Pääste",
        "amenity": "fire_station",
        "type": "fire_station",
        "category": "Rescue & Fire Brigade",
        "address": "Akadeemia tee 50",
        "district": "Mustamäe",
        "city": "Tallinn",
        "phone": "+372 628 2250",
        "emergency": "112",
        "status": "active",
        "hours": "24/7 Emergency Ready",
        "vehicles": "2 Engines, 1 Heavy Rescue"
      }
    },
    {
      "type": "Feature",
      "geometry": { "type": "Point", "coordinates": [24.8690, 59.4695] },
      "properties": {
        "id": "fire-pirita",
        "name": "Pirita Päästekomando",
        "shortName": "Pirita Pääste",
        "amenity": "fire_station",
        "type": "fire_station",
        "category": "Rescue, Water Rescue & Fire Brigade",
        "address": "Kloostrimetsa tee 56",
        "district": "Pirita",
        "city": "Tallinn",
        "phone": "+372 628 2300",
        "emergency": "112",
        "status": "active",
        "hours": "24/7 Marine & Fire Ready",
        "vehicles": "2 Engines, 2 Rescue Boats"
      }
    },
    {
      "type": "Feature",
      "geometry": { "type": "Point", "coordinates": [24.8785, 59.4335] },
      "properties": {
        "id": "fire-lasnamae",
        "name": "Lasnamäe Päästekomando",
        "shortName": "Lasnamäe Pääste",
        "amenity": "fire_station",
        "type": "fire_station",
        "category": "Rescue & Fire Brigade",
        "address": "Osmussaare tn 2",
        "district": "Lasnamäe",
        "city": "Tallinn",
        "phone": "+372 628 2350",
        "emergency": "112",
        "status": "active",
        "hours": "24/7 Emergency Ready",
        "vehicles": "3 Engines, 1 Ladder"
      }
    },
    {
      "type": "Feature",
      "geometry": { "type": "Point", "coordinates": [24.6890, 59.4580] },
      "properties": {
        "id": "fire-kopli",
        "name": "Kopli Päästekomando",
        "shortName": "Kopli Pääste",
        "amenity": "fire_station",
        "type": "fire_station",
        "category": "Port & Chemical Rescue, Fire Brigade",
        "address": "Ankru tn 12",
        "district": "Põhja-Tallinn",
        "city": "Tallinn",
        "phone": "+372 628 2400",
        "emergency": "112",
        "status": "active",
        "hours": "24/7 Emergency Ready",
        "vehicles": "2 Engines, Hazmat Unit"
      }
    }
  ]
}
